[{"OBJECT_NAME":"ONEWEB-0044","OBJECT_ID":"2020-008V","EPOCH":"2026-05-31T04:54:19.684800","MEAN_MOTION":13.10377122,"ECCENTRICITY":0.0001939,"INCLINATION":87.8859,"RA_OF_ASC_NODE":39.647,"ARG_OF_PERICENTER":75.8493,"MEAN_ANOMALY":284.2849,"EPHEMERIS_TYPE":0,"CLASSIFICATION_TYPE":"U","NORAD_CAT_ID":45150,"ELEMENT_SET_NO":999,"REV_AT_EPOCH":30625,"BSTAR":0.0013281000000000002,"MEAN_MOTION_DOT":4.76e-06,"MEAN_MOTION_DDOT":0.0},{"OBJECT_NAME":"ONEWEB-0045","OBJECT_ID":"2020-008W","EPOCH":"2026-05-31T03:35:13.909056","MEAN_MOTION":13.11418097,"ECCENTRICITY":0.0001884,"INCLINATION":87.8914,"RA_OF_ASC_NODE":24.4486,"ARG_OF_PERICENTER":79.7204,"MEAN_ANOMALY":280.4136,"EPHEMERIS_TYPE":0,"CLASSIFICATION_TYPE":"U","NORAD_CAT_ID":45151,"ELEMENT_SET_NO":999,"REV_AT_EPOCH":30817,"BSTAR":-0.00063579,"MEAN_MOTION_DOT":-2.13e-06,"MEAN_MOTION_DDOT":0.0},{"OBJECT_NAME":"ONEWEB-0047","OBJECT_ID":"2020-008X","EPOCH":"2026-05-31T04:44:33.878112","MEAN_MOTION":13.10376197,"ECCENTRICITY":0.0001622,"INCLINATION":87.8855,"RA_OF_ASC_NODE":39.6469,"ARG_OF_PERICENTER":78.7021,"MEAN_ANOMALY":281.4288,"EPHEMERIS_TYPE":0,"CLASSIFICATION_TYPE":"U","NORAD_CAT_ID":45152,"ELEMENT_SET_NO":999,"REV_AT_EPOCH":30597,"BSTAR":7.755300000000001e-05,"MEAN_MOTION_DOT":4e-07,"MEAN_MOTION_DDOT":0.0},{"OBJECT_NAME":"ONEWEB-0048","OBJECT_ID":"2020-008Y","EPOCH":"2026-05-31T04:37:34.686048","MEAN_MOTION":13.10377198,"ECCENTRICITY":0.0001752,"INCLINATION":87.8852,"RA_OF_ASC_NODE":39.6723,"ARG_OF_PERICENTER":79.0807,"MEAN_ANOMALY":281.0517,"EPHEMERIS_TYPE":0,"CLASSIFICATION_TYPE":"U","NORAD_CAT_ID":45153,"ELEMENT_SET_NO":999,"REV_AT_EPOCH":30558,"BSTAR":-0.00064189,"MEAN_MOTION_DOT":-2.11e-06,"MEAN_MOTION_DDOT":0.0},{"OBJECT_NAME":"ONEWEB-0049","OBJECT_ID":"2020-008Z","EPOCH":"2026-05-31T04:42:10.405728","MEAN_MOTION":13.1037697,"ECCENTRICITY":0.0002171,"INCLINATION":87.8854,"RA_OF_ASC_NODE":39.6598,"ARG_OF_PERICENTER":87.6292,"MEAN_ANOMALY":272.5083,"EPHEMERIS_TYPE":0,"CLASSIFICATION_TYPE":"U","NORAD_CAT_ID":45154,"ELEMENT_SET_NO":999,"REV_AT_EPOCH":30580,"BSTAR":-4.4614000000000003e-05,"MEAN_MOTION_DOT":-3e-08,"MEAN_MOTION_DDOT":0.0},{"OBJECT_NAME":"ONEWEB-0051","OBJECT_ID":"2020-008AA","EPOCH":"2026-05-31T03:32:47.903424","MEAN_MOTION":13.11417803,"ECCENTRICITY":0.0001826,"INCLINATION":87.8905,"RA_OF_ASC_NODE":24.4576,"ARG_OF_PERICENTER":85.9035,"MEAN_ANOMALY":274.2302,"EPHEMERIS_TYPE":0,"CLASSIFICATION_TYPE":"U","NORAD_CAT_ID":45155,"ELEMENT_SET_NO":999,"REV_AT_EPOCH":30885,"BSTAR":-0.00075002,"MEAN_MOTION_DOT":-2.53e-06,"MEAN_MOTION_DDOT":0.0},{"OBJECT_NAME":"ONEWEB-0052","OBJECT_ID":"2020-008AB","EPOCH":"2026-05-31T03:21:19.204704","MEAN_MOTION":13.10374082,"ECCENTRICITY":0.0002205,"INCLINATION":87.8853,"RA_OF_ASC_NODE":39.6565,"ARG_OF_PERICENTER":87.6811,"MEAN_ANOMALY":272.4569,"EPHEMERIS_TYPE":0,"CLASSIFICATION_TYPE":"U","NORAD_CAT_ID":45156,"ELEMENT_SET_NO":999,"REV_AT_EPOCH":30570,"BSTAR":0.0021053,"MEAN_MOTION_DOT":7.48e-06,"MEAN_MOTION_DDOT":0.0},{"OBJECT_NAME":"ONEWEB-0053","OBJECT_ID":"2020-008AC","EPOCH":"2026-05-31T04:08:53.325024","MEAN_MOTION":13.10371179,"ECCENTRICITY":0.0002318,"INCLINATION":87.8842,"RA_OF_ASC_NODE":39.6724,"ARG_OF_PERICENTER":78.7596,"MEAN_ANOMALY":281.3792,"EPHEMERIS_TYPE":0,"CLASSIFICATION_TYPE":"U","NORAD_CAT_ID":45157,"ELEMENT_SET_NO":999,"REV_AT_EPOCH":30568,"BSTAR":-0.0014897,"MEAN_MOTION_DOT":-5.07e-06,"MEAN_MOTION_DDOT":0.0},{"OBJECT_NAME":"ONEWEB-0054","OBJECT_ID":"2020-008AD","EPOCH":"2026-05-31T03:09:09.453888","MEAN_MOTION":13.10376292,"ECCENTRICITY":0.0001852,"INCLINATION":87.8859,"RA_OF_ASC_NODE":39.6612,"ARG_OF_PERICENTER":82.1839,"MEAN_ANOMALY":277.9499,"EPHEMERIS_TYPE":0,"CLASSIFICATION_TYPE":"U","NORAD_CAT_ID":45158,"ELEMENT_SET_NO":999,"REV_AT_EPOCH":30579,"BSTAR":0.0015952,"MEAN_MOTION_DOT":5.7e-06,"MEAN_MOTION_DDOT":0.0},{"OBJECT_NAME":"ONEWEB-0056","OBJECT_ID":"2020-008AE","EPOCH":"2026-05-31T04:18:16.913952","MEAN_MOTION":13.10368836,"ECCENTRICITY":0.0001778,"INCLINATION":87.8849,"RA_OF_ASC_NODE":39.6461,"ARG_OF_PERICENTER":89.0352,"MEAN_ANOMALY":271.0979,"EPHEMERIS_TYPE":0,"CLASSIFICATION_TYPE":"U","NORAD_CAT_ID":45159,"ELEMENT_SET_NO":999,"REV_AT_EPOCH":30595,"BSTAR":-0.0016406,"MEAN_MOTION_DOT":-5.6e-06,"MEAN_MOTION_DDOT":0.0},{"OBJECT_NAME":"ONEWEB-0057","OBJECT_ID":"2020-008AF","EPOCH":"2026-05-31T04:42:33.405408","MEAN_MOTION":13.10378027,"ECCENTRICITY":0.0002338,"INCLINATION":87.8852,"RA_OF_ASC_NODE":39.6552,"ARG_OF_PERICENTER":78.7604,"MEAN_ANOMALY":281.3786,"EPHEMERIS_TYPE":0,"CLASSIFICATION_TYPE":"U","NORAD_CAT_ID":45160,"ELEMENT_SET_NO":999,"REV_AT_EPOCH":30612,"BSTAR":1.8765e-05,"MEAN_MOTION_DOT":1.9e-07,"MEAN_MOTION_DDOT":0.0},{"OBJECT_NAME":"ONEWEB-0058","OBJECT_ID":"2020-008AG","EPOCH":"2026-05-31T04:23:25.522656","MEAN_MOTION":13.10374229,"ECCENTRICITY":0.000162,"INCLINATION":87.8848,"RA_OF_ASC_NODE":39.665,"ARG_OF_PERICENTER":75.3941,"MEAN_ANOMALY":284.7365,"EPHEMERIS_TYPE":0,"CLASSIFICATION_TYPE":"U","NORAD_CAT_ID":45161,"ELEMENT_SET_NO":999,"REV_AT_EPOCH":30619,"BSTAR":-0.0018329000000000002,"MEAN_MOTION_DOT":-6.27e-06,"MEAN_MOTION_DDOT":0.0},{"OBJECT_NAME":"ONEWEB-0059","OBJECT_ID":"2020-008AH","EPOCH":"2026-05-31T04:18:39.000384","MEAN_MOTION":13.10374891,"ECCENTRICITY":0.000187,"INCLINATION":87.8846,"RA_OF_ASC_NODE":39.6644,"ARG_OF_PERICENTER":76.7154,"MEAN_ANOMALY":283.4181,"EPHEMERIS_TYPE":0,"CLASSIFICATION_TYPE":"U","NORAD_CAT_ID":45162,"ELEMENT_SET_NO":999,"REV_AT_EPOCH":30609,"BSTAR":-0.0030244,"MEAN_MOTION_DOT":-1.043e-05,"MEAN_MOTION_DDOT":0.0},{"OBJECT_NAME":"ONEWEB-0062","OBJECT_ID":"2020-008AJ","EPOCH":"2026-05-31T04:51:44.271072","MEAN_MOTION":13.10376775,"ECCENTRICITY":0.0001393,"INCLINATION":87.8857,"RA_OF_ASC_NODE":39.646,"ARG_OF_PERICENTER":77.8646,"MEAN_ANOMALY":282.2637,"EPHEMERIS_TYPE":0,"CLASSIFICATION_TYPE":"U","NORAD_CAT_ID":45163,"ELEMENT_SET_NO":999,"REV_AT_EPOCH":30596,"BSTAR":0.00076585,"MEAN_MOTION_DOT":2.8e-06,"MEAN_MOTION_DDOT":0.0},{"OBJECT_NAME":"ONEWEB-0065","OBJECT_ID":"2020-008AK","EPOCH":"2026-05-31T01:59:37.885632","MEAN_MOTION":13.10370748,"ECCENTRICITY":0.000216,"INCLINATION":87.8849,"RA_OF_ASC_NODE":39.6779,"ARG_OF_PERICENTER":88.76,"MEAN_ANOMALY":271.3775,"EPHEMERIS_TYPE":0,"CLASSIFICATION_TYPE":"U","NORAD_CAT_ID":45164,"ELEMENT_SET_NO":999,"REV_AT_EPOCH":30564,"BSTAR":6.516100000000001e-05,"MEAN_MOTION_DOT":3.5e-07,"MEAN_MOTION_DDOT":0.0},{"OBJECT_NAME":"ONEWEB-0066","OBJECT_ID":"2020-020A","EPOCH":"2026-05-31T03:10:48.547776","MEAN_MOTION":13.11416776,"ECCENTRICITY":0.0001813,"INCLINATION":87.8903,"RA_OF_ASC_NODE":24.4649,"ARG_OF_PERICENTER":76.9186,"MEAN_ANOMALY":283.2144,"EPHEMERIS_TYPE":0,"CLASSIFICATION_TYPE":"U","NORAD_CAT_ID":45424,"ELEMENT_SET_NO":999,"REV_AT_EPOCH":30044,"BSTAR":-0.0011518000000000001,"MEAN_MOTION_DOT":-3.96e-06,"MEAN_MOTION_DDOT":0.0},{"OBJECT_NAME":"ONEWEB-0067","OBJECT_ID":"2020-020B","EPOCH":"2026-05-31T04:05:30.539040","MEAN_MOTION":13.11423526,"ECCENTRICITY":0.0001983,"INCLINATION":87.892,"RA_OF_ASC_NODE":24.3766,"ARG_OF_PERICENTER":83.4294,"MEAN_ANOMALY":276.7059,"EPHEMERIS_TYPE":0,"CLASSIFICATION_TYPE":"U","NORAD_CAT_ID":45425,"ELEMENT_SET_NO":999,"REV_AT_EPOCH":30050,"BSTAR":0.0015328,"MEAN_MOTION_DOT":5.56e-06,"MEAN_MOTION_DDOT":0.0},{"OBJECT_NAME":"ONEWEB-0080","OBJECT_ID":"2020-020C","EPOCH":"2026-05-31T04:04:44.663232","MEAN_MOTION":13.11417314,"ECCENTRICITY":0.0001497,"INCLINATION":87.8914,"RA_OF_ASC_NODE":24.4523,"ARG_OF_PERICENTER":82.2549,"MEAN_ANOMALY":277.8749,"EPHEMERIS_TYPE":0,"CLASSIFICATION_TYPE":"U","NORAD_CAT_ID":45426,"ELEMENT_SET_NO":999,"REV_AT_EPOCH":30047,"BSTAR":0.0015151000000000001,"MEAN_MOTION_DOT":5.5e-06,"MEAN_MOTION_DDOT":0.0},{"OBJECT_NAME":"ONEWEB-0090","OBJECT_ID":"2020-020D","EPOCH":"2026-05-31T04:46:13.920672","MEAN_MOTION":13.11415347,"ECCENTRICITY":0.000174,"INCLINATION":87.891,"RA_OF_ASC_NODE":24.4515,"ARG_OF_PERICENTER":84.5104,"MEAN_ANOMALY":275.6223,"EPHEMERIS_TYPE":0,"CLASSIFICATION_TYPE":"U","NORAD_CAT_ID":45427,"ELEMENT_SET_NO":999,"REV_AT_EPOCH":30044,"BSTAR":-0.00062888,"MEAN_MOTION_DOT":-2.1e-06,"MEAN_MOTION_DDOT":0.0},{"OBJECT_NAME":"ONEWEB-0061","OBJECT_ID":"2020-020E","EPOCH":"2026-05-31T01:52:29.593056","MEAN_MOTION":13.11418538,"ECCENTRICITY":0.0001794,"INCLINATION":87.8912,"RA_OF_ASC_NODE":24.4601,"ARG_OF_PERICENTER":82.3398,"MEAN_ANOMALY":277.7933,"EPHEMERIS_TYPE":0,"CLASSIFICATION_TYPE":"U","NORAD_CAT_ID":45428,"ELEMENT_SET_NO":999,"REV_AT_EPOCH":30038,"BSTAR":-5.9818e-07,"MEAN_MOTION_DOT":1.2e-07,"MEAN_MOTION_DDOT":0.0},{"OBJECT_NAME":"ONEWEB-0081","OBJECT_ID":"2020-020F","EPOCH":"2026-05-31T03:15:41.740128","MEAN_MOTION":13.11417555,"ECCENTRICITY":0.0001925,"INCLINATION":87.8905,"RA_OF_ASC_NODE":24.4596,"ARG_OF_PERICENTER":78.7747,"MEAN_ANOMALY":281.3598,"EPHEMERIS_TYPE":0,"CLASSIFICATION_TYPE":"U","NORAD_CAT_ID":45429,"ELEMENT_SET_NO":999,"REV_AT_EPOCH":30050,"BSTAR":-0.0012348,"MEAN_MOTION_DOT":-4.25e-06,"MEAN_MOTION_DDOT":0.0},{"OBJECT_NAME":"ONEWEB-0069","OBJECT_ID":"2020-020G","EPOCH":"2026-05-31T01:28:33.527424","MEAN_MOTION":13.11509662,"ECCENTRICITY":0.0001792,"INCLINATION":87.8897,"RA_OF_ASC_NODE":24.4763,"ARG_OF_PERICENTER":73.4063,"MEAN_ANOMALY":286.7262,"EPHEMERIS_TYPE":0,"CLASSIFICATION_TYPE":"U","NORAD_CAT_ID":45430,"ELEMENT_SET_NO":999,"REV_AT_EPOCH":30042,"BSTAR":-0.029881000000000005,"MEAN_MOTION_DOT":-0.0001058,"MEAN_MOTION_DDOT":0.0},{"OBJECT_NAME":"ONEWEB-0031","OBJECT_ID":"2020-020H","EPOCH":"2026-05-31T04:09:25.941888","MEAN_MOTION":13.11416632,"ECCENTRICITY":0.0001608,"INCLINATION":87.89,"RA_OF_ASC_NODE":24.4613,"ARG_OF_PERICENTER":83.9544,"MEAN_ANOMALY":276.1767,"EPHEMERIS_TYPE":0,"CLASSIFICATION_TYPE":"U","NORAD_CAT_ID":45431,"ELEMENT_SET_NO":999,"REV_AT_EPOCH":30042,"BSTAR":0.0016392000000000002,"MEAN_MOTION_DOT":5.94e-06,"MEAN_MOTION_DDOT":0.0}]